GLOBALSTAR M057         
1 25943U 99058A   25280.81213262 -.00000094  00000+0 -13634-4 0  9991
2 25943  52.0009  28.5714 0002180 231.6991 128.3663 12.24827352180734
GLOBALSTAR M059         
1 25944U 99058B   25280.94755619 -.00000099  00000+0 -15277-3 0  9992
2 25944  52.0010 262.1191 0000286  95.7762 279.7836 11.99988385587584
GLOBALSTAR M056         
1 25945U 99058C   25280.91359913 -.00000045  00000+0  49942-3 0  9993
2 25945  51.9950 261.2800 0001261  44.6819 334.8838 12.04779276176216
GLOBALSTAR M031         
1 25946U 99058D   25280.95400984  .00000049  00000+0  14179-2 0  9999
2 25946  51.9940 146.7451 0002259  59.7650  72.9810 12.16041335178261
GLOBALSTAR M039         
1 25961U 99062A   25280.44217201 -.00000088  00000+0  90324-4 0  9995
2 25961  51.9842 286.8087 0002350 234.2932 125.7716 12.62333294194398
GLOBALSTAR M034         
1 25962U 99062B   25280.94309137 -.00000077  00000+0  62191-4 0  9990
2 25962  51.9865  78.2829 0013271 252.9262 276.7086 11.79449026151699
GLOBALSTAR M029         
1 25963U 99062C   25280.96428363 -.00000047  00000+0  48868-3 0  9997
2 25963  51.9782 150.0127 0002656   1.4213  13.3821 11.99901841182669
GLOBALSTAR M061         
1 25964U 99062D   25280.91298699 -.00000082  00000+0 -22691-4 0  9997
2 25964  51.9781 263.8967 0005700 174.9756 202.5005 11.76777207134457
